OBJECT_NAME,OBJECT_ID,EPOCH,MEAN_MOTION,ECCENTRICITY,INCLINATION,RA_OF_ASC_NODE,ARG_OF_PERICENTER,MEAN_ANOMALY,EPHEMERIS_TYPE,CLASSIFICATION_TYPE,NORAD_CAT_ID,ELEMENT_SET_NO,REV_AT_EPOCH,BSTAR,MEAN_MOTION_DOT,MEAN_MOTION_DDOT
SUOMI NPP,2011-061A,2026-06-13T22:58:23.083104,14.19516754,.00017149,98.7954,105.8553,14.4796,345.6429,0,U,37849,999,75798,.44124833E-4,.49E-6,0
YAOGAN-12,2011-066B,2026-06-13T22:08:49.901856,15.26565516,.00084695,97.1147,203.6440,229.5974,130.4527,0,U,37875,999,81154,.23786906E-3,.6158E-4,0
BEIDOU-2 M4,2012-018B,2026-06-13T08:41:38.889888,1.86229521,.00112871,55.6617,304.2191,276.0779,83.7740,0,U,38251,999,9587,0,-.7E-6,0
ARIRANG-3 (KOMPSAT-3),2012-025B,2026-06-13T22:52:47.779392,14.62203644,.00065658,98.1176,122.4690,117.5732,242.6137,0,U,38338,999,75087,.86825996E-4,.391E-5,0
HORYU-2,2012-025D,2026-06-13T21:12:46.348128,14.91050317,.0008042,98.2170,297.6851,184.7408,175.3734,0,U,38340,999,74823,.30278867E-3,.2938E-4,0
CSSWE,2012-048D,2026-06-13T22:11:56.180256,15.44321004,.00476542,64.6623,104.5411,174.8036,185.3606,0,U,38761,999,11589,.56512595E-3,.27165E-3,0
CP5,2012-048F,2026-06-13T17:29:40.809120,15.27686802,.00790422,64.6427,164.0162,177.3813,182.7747,0,U,38763,999,11623,.35181729E-3,.10268E-3,0
METOP-B,2012-049A,2026-06-13T22:50:20.256576,14.21431881,.00024291,98.6505,216.5152,27.6201,332.5105,0,U,38771,999,71280,.65476916E-4,.1E-5,0
SJ-9A,2012-056A,2026-06-13T22:20:53.688480,14.85473105,.00239476,97.6707,137.0004,268.1264,91.7209,0,U,38860,999,69910,.10568478E-3,.863E-5,0
COSMOS 2484 (RODNIK-S 6),2013-001C,2026-06-13T22:13:55.446816,12.42938568,.00269972,82.5024,223.9195,43.5963,316.7244,0,U,39059,999,60815,-.55357517E-3,-.67E-6,0
SARAL,2013-009A,2026-06-13T21:33:53.071488,14.32855223,.00008661,98.5556,351.5074,328.9755,31.1378,0,U,39086,999,69513,.49456104E-4,.91E-6,0
AAUSAT 3,2013-009B,2026-06-13T18:37:04.266912,14.39935788,.00105664,98.3700,348.6474,217.3374,142.7081,0,U,39087,999,69668,.20415049E-3,.6E-5,0
STRAND-1,2013-009E,2026-06-13T18:48:38.805408,14.37161544,.00075778,98.3921,345.1020,236.8114,123.2347,0,U,39090,999,69657,.10240452E-3,.262E-5,0
BRITE-AUSTRIA,2013-009F,2026-06-13T22:25:40.154592,14.36540938,.00090395,98.3993,344.4507,247.4517,112.5714,0,U,39091,999,69658,.6864362E-4,.159E-5,0
UNIBRITE,2013-009G,2026-06-13T17:41:59.175744,14.36412119,.00079829,98.4031,344.3688,243.8498,116.1868,0,U,39092,999,69649,.7154371E-4,.167E-5,0
AIST-2 (RS43),2013-015D,2026-06-13T23:31:59.139840,15.26273790,.00187922,64.8695,267.8168,247.1369,112.7778,0,U,39133,999,72341,.24495574E-3,.6202E-4,0
GAOFEN-1,2013-018A,2026-06-13T22:41:49.737120,14.76531704,.00157088,97.9101,237.0791,277.8518,82.0908,0,U,39150,999,70776,.27607877E-4,.142E-5,0
NEE-01 PEGASO,2013-018B,2026-06-13T09:07:22.348992,14.93643611,.0012775,98.1215,308.4049,171.4218,188.7221,0,U,39151,999,71013,.20384076E-3,.2095E-4,0
TURKSAT-3USAT,2013-018C,2026-06-13T19:18:47.902176,14.96411526,.00136884,97.7937,255.6434,110.1223,250.1472,0,U,39152,999,71058,.38690179E-3,.4335E-4,0
CUBEBUG-1 (CAPITAN BETO),2013-018D,2026-06-13T16:38:05.263008,14.97279964,.00118424,98.1653,324.4789,155.9614,204.2162,0,U,39153,999,71054,.26186213E-3,.2975E-4,0
PROBA-V,2013-021A,2026-06-13T21:15:55.221984,14.23596410,.00050074,98.3582,143.6556,131.1901,228.9711,0,U,39159,999,68064,.46796147E-4,.66E-6,0
ESTCUBE 1,2013-021C,2026-06-13T09:53:31.218432,14.81390209,.00089294,97.7294,218.7300,36.8949,323.2877,0,U,39161,999,70446,.19659602E-3,.1487E-4,0
ARIRANG-5 (KOMPSAT-5),2013-042A,2026-06-13T21:46:16.599648,15.04484454,.000512,97.6209,351.6545,128.2809,231.8879,0,U,39227,999,70336,.1213414E-3,.1637E-4,0
GONETS-M 5,2013-048A,2026-06-13T21:28:51.386016,12.42891867,.00159564,82.4829,345.4358,217.8976,142.0982,0,U,39249,999,57847,.2917827E-3,.5E-6,0
GONETS-M 7,2013-048C,2026-06-13T22:31:30.929952,12.42914744,.00167337,82.4897,348.3293,219.2566,140.7301,0,U,39251,999,57843,.38585499E-3,.63E-6,0
FENGYUN 3C,2013-052A,2026-06-13T22:25:13.165824,14.15754435,.00154019,98.4985,138.9583,36.6093,323.6131,0,U,39260,999,65810,.52747104E-4,.62E-6,0
CASSIOPE,2013-055A,2026-06-13T19:34:51.555072,15.24889463,.02939472,80.9157,70.8148,73.7607,289.5747,0,U,39265,999,66715,.53049149E-3,.4843E-3,-.447786E-6
APRIZESAT 7,2013-066A,2026-06-13T20:48:08.715456,14.91557688,.00347408,97.7709,118.1344,220.4951,139.3682,0,U,39416,999,68073,.10392124E-3,.995E-5,0
ZACUBE-1 (TSHEPISOSAT),2013-066B,2026-06-13T22:35:18.597408,15.01171980,.00404553,97.8083,127.2606,259.0353,100.6319,0,U,39417,999,68024,.27464575E-3,.3518E-4,0
APRIZESAT 8,2013-066K,2026-06-13T20:17:43.759968,14.87647241,.004454,97.8221,112.3601,297.9239,61.7471,0,U,39425,999,67917,.106938E-3,.933E-5,0
