{"_default": { "26": {"norad_id": "39417", "name": "ZACUBE", "tle1": "1 39417U 13066B   26164.94118747  .00003518  00000-0  27465-3 0  9994", "tle2": "2 39417  97.8083 127.2606 0040455 259.0353 100.6319 15.01171980680243", "object_type": "PAYLOAD", "criticality_score": 9.0, "last_updated": "2026-06-14T08:16:17.656748+00:00", "maneuver_count": 0, "owner": "N/A"}, "27": {"norad_id": "39161", "name": "ESTCube-1", "tle1": "1 39161U 13021C   26164.41216688  .00001487  00000-0  19660-3 0  9997", "tle2": "2 39161  97.7294 218.7300 0008929  36.8949 323.2877 14.81390209704468", "object_type": "PAYLOAD", "criticality_score": 9.0, "last_updated": "2026-06-14T08:16:17.656748+00:00", "maneuver_count": 0, "owner": "N/A"}, "28": {"norad_id": "39153", "name": "CUBEBUG 1", "tle1": "1 39153U 13018D   26164.69311647  .00002975  00000-0  26186-3 0  9999", "tle2": "2 39153  98.1653 324.4789 0011842 155.9614 204.2162 14.97279964710541", "object_type": "PAYLOAD", "criticality_score": 9.0, "last_updated": "2026-06-14T08:16:17.656748+00:00", "maneuver_count": 0, "owner": "N/A"}, "29": {"norad_id": "39091", "name": "BRITE-A TUGSAT-1", "tle1": "1 39091U 13009F   26164.93449253  .00000159  00000-0  68644-4 0  9990", "tle2": "2 39091  98.3993 344.4507 0009039 247.4517 112.5714 14.36540938696581", "object_type": "PAYLOAD", "criticality_score": 9.0, "last_updated": "2026-06-14T08:16:17.656748+00:00", "maneuver_count": 0, "owner": "N/A"}, "30": {"norad_id": "39087", "name": "AAUSAT3", "tle1": "1 39087U 13009B   26164.77574383  .00000600  00000-0  20415-3 0  9994", "tle2": "2 39087  98.3700 348.6474 0010566 217.3374 142.7081 14.39935788696682", "object_type": "PAYLOAD", "criticality_score": 9.0, "last_updated": "2026-06-14T08:16:17.656748+00:00", "maneuver_count": 0, "owner": "N/A"}, "57": {"norad_id": "39260", "name": "FENGYUN 3C", "tle1": "1 39260U 13052A   26164.93418016  .00000062  00000-0  52747-4 0  9999", "tle2": "2 39260  98.4985 138.9583 0015402  36.6093 323.6131 14.15754435658109", "object_type": "PAYLOAD", "criticality_score": 9.0, "last_updated": "2026-06-14T08:16:17.656748+00:00", "maneuver_count": 0, "owner": "N/A"}, "58": {"norad_id": "39090", "name": "STRAND 1", "tle1": "1 39090U 13009E   26164.78378247  .00000262  00000-0  10240-3 0  9999", "tle2": "2 39090  98.3921 345.1020 0007578 236.8114 123.2347 14.37161544696573", "object_type": "PAYLOAD", "criticality_score": 9.0, "last_updated": "2026-06-14T08:16:17.656748+00:00", "maneuver_count": 0, "owner": "N/A"}, "60": {"norad_id": "38340", "name": "HORYU 2", "tle1": "1 38340U 12025D   26164.88386977  .00002938  00000-0  30279-3 0  9999", "tle2": "2 38340  98.2170 297.6851 0008042 184.7408 175.3734 14.91050317748236", "object_type": "PAYLOAD", "criticality_score": 9.0, "last_updated": "2026-06-14T08:16:17.656748+00:00", "maneuver_count": 0, "owner": "N/A"}, "117": {"norad_id": "39265", "name": "CASSIOPE", "tle1": "1 39265U 13055A   26164.81587448  .00048430 -44779-6  53049-3 0  9994", "tle2": "2 39265  80.9157  70.8148 0293947  73.7607 289.5747 15.24889463667156", "object_type": "PAYLOAD", "criticality_score": 9.0, "last_updated": "2026-06-14T08:16:17.656748+00:00", "maneuver_count": 0, "owner": "N/A"}, "118": {"norad_id": "39151", "name": "NEE 01 PEGASUS", "tle1": "1 39151U 13018B   26164.38011978  .00002095  00000-0  20384-3 0  9994", "tle2": "2 39151  98.1215 308.4049 0012775 171.4218 188.7221 14.93643611710130", "object_type": "PAYLOAD", "criticality_score": 9.0, "last_updated": "2026-06-14T08:16:17.656748+00:00", "maneuver_count": 0, "owner": "N/A"}, "119": {"norad_id": "39092", "name": "BRITE-U UNIBRITE", "tle1": "1 39092U 13009G   26164.73749046  .00000167  00000-0  71544-4 0  9994", "tle2": "2 39092  98.4031 344.3688 0007983 243.8498 116.1868 14.36412119696498", "object_type": "PAYLOAD", "criticality_score": 9.0, "last_updated": "2026-06-14T08:16:17.656748+00:00", "maneuver_count": 0, "owner": "N/A"}, "120": {"norad_id": "39086", "name": "SARAL", "tle1": "1 39086U 13009A   26164.89853092  .00000091  00000-0  49456-4 0  9994", "tle2": "2 39086  98.5556 351.5074 0000866 328.9755  31.1378 14.32855223695132", "object_type": "PAYLOAD", "criticality_score": 9.0, "last_updated": "2026-06-14T08:16:17.656748+00:00", "maneuver_count": 0, "owner": "N/A"}, "121": {"norad_id": "38771", "name": "METOP-B", "tle1": "1 38771U 12049A   26164.95162334  .00000100  00000-0  65477-4 0  9998", "tle2": "2 38771  98.6505 216.5152 0002429  27.6201 332.5105 14.21431881712808", "object_type": "PAYLOAD", "criticality_score": 9.0, "last_updated": "2026-06-14T08:16:17.656748+00:00", "maneuver_count": 0, "owner": "N/A"}, "198": {"norad_id": "38761", "name": "CSSWE", "tle1": "1 38761U 12048D   26164.92495579  .00027165  00000-0  56513-3 0  9993", "tle2": "2 38761  64.6623 104.5411 0047654 174.8036 185.3606 15.44321004115892", "object_type": "PAYLOAD", "criticality_score": 9.0, "last_updated": "2026-06-14T08:16:17.656748+00:00", "maneuver_count": 0, "owner": "N/A"}, "201": {"norad_id": "38763", "name": "CP5", "tle1": "1 38763U 12048F   26164.72894455  .00010268  00000-0  35182-3 0  9994", "tle2": "2 38763  64.6427 164.0162 0079042 177.3813 182.7747 15.27686802116234", "object_type": "PAYLOAD", "criticality_score": 9.0, "last_updated": "2026-06-14T08:16:17.656748+00:00", "maneuver_count": 0, "owner": "N/A"}, "210": {"norad_id": "39152", "name": "TURKSAT 3U", "tle1": "1 39152U 13018C   26164.80472109  .00004335  00000-0  38690-3 0  9997", "tle2": "2 39152  97.7937 255.6434 0013688 110.1223 250.1472 14.96411526710580", "object_type": "PAYLOAD", "criticality_score": 9.0, "last_updated": "2026-06-14T08:16:17.656748+00:00", "maneuver_count": 0, "owner": "N/A"}, "258": {"norad_id": "39159", "name": "PROBA V", "tle1": "1 39159U 13021A   26164.88605581  .00000066  00000-0  46796-4 0  9992", "tle2": "2 39159  98.3582 143.6556 0005007 131.1901 228.9711 14.23596410680641", "object_type": "PAYLOAD", "criticality_score": 9.0, "last_updated": "2026-06-14T08:16:17.656748+00:00", "maneuver_count": 0, "owner": "N/A"}, "266": {"norad_id": "39133", "name": "AIST 2", "tle1": "1 39133U 13015D   26164.98054560  .00006202  00000-0  24496-3 0  9993", "tle2": "2 39133  64.8695 267.8168 0018792 247.1369 112.7778 15.26273790723418", "object_type": "PAYLOAD", "criticality_score": 9.0, "last_updated": "2026-06-14T08:16:17.656748+00:00", "maneuver_count": 0, "owner": "N/A"}, "373": {"norad_id": "39416", "name": "APRIZESAT 7", "tle1": "1 39416U 13066A   26164.86676754  .00000995  00000-0  10392-3 0  9998", "tle2": "2 39416  97.7709 118.1344 0034741 220.4951 139.3682 14.91557688680738", "object_type": "PAYLOAD", "criticality_score": 9.0, "last_updated": "2026-06-14T08:16:17.656748+00:00", "maneuver_count": 0, "owner": "N/A"}, "374": {"norad_id": "39425", "name": "APRIZESAT 8", "tle1": "1 39425U 13066K   26164.84564537  .00000933  00000-0  10694-3 0  9998", "tle2": "2 39425  97.8221 112.3601 0044540 297.9239  61.7471 14.87647241679176", "object_type": "PAYLOAD", "criticality_score": 9.0, "last_updated": "2026-06-14T08:16:17.656748+00:00", "maneuver_count": 0, "owner": "N/A"}, "434": {"norad_id": "38860", "name": "SJ-9A", "tle1": "1 38860U 12056A   26164.93117695  .00000863  00000-0  10568-3 0  9999", "tle2": "2 38860  97.6707 137.0004 0023948 268.1264  91.7209 14.85473105699104", "object_type": "PAYLOAD", "criticality_score": 9.0, "last_updated": "2026-06-14T08:16:17.656748+00:00", "maneuver_count": 0, "owner": "N/A"}, "471": {"norad_id": "37849", "name": "NPP", "tle1": "1 37849U 11061A   26164.95721161  .00000049  00000-0  44125-4 0  9994", "tle2": "2 37849  98.7954 105.8553 0001715  14.4796 345.6429 14.19516754757989", "object_type": "PAYLOAD", "criticality_score": 9.0, "last_updated": "2026-06-14T08:16:17.656748+00:00", "maneuver_count": 0, "owner": "N/A"}, "531": {"norad_id": "37875", "name": "YAOGAN 12", "tle1": "1 37875U 11066B   26164.92279979  .00006158  00000-0  23787-3 0  9997", "tle2": "2 37875  97.1147 203.6440 0008469 229.5974 130.4527 15.26565516811548", "object_type": "PAYLOAD", "criticality_score": 9.0, "last_updated": "2026-06-14T08:16:17.656748+00:00", "maneuver_count": 0, "owner": "N/A"}, "537": {"norad_id": "39227", "name": "KOMPSAT 5", "tle1": "1 39227U 13042A   26164.90713657  .00001637  00000-0  12134-3 0  9991", "tle2": "2 39227  97.6209 351.6545 0005120 128.2809 231.8879 15.04484454703361", "object_type": "PAYLOAD", "criticality_score": 9.0, "last_updated": "2026-06-14T08:16:17.656748+00:00", "maneuver_count": 0, "owner": "N/A"}, "592": {"norad_id": "39059", "name": "COSMOS 2484", "tle1": "1 39059U 13001C   26164.92633619 -.00000067  00000-0 -55358-3 0  9993", "tle2": "2 39059  82.5024 223.9195 0026997  43.5963 316.7244 12.42938568608158", "object_type": "PAYLOAD", "criticality_score": 9.0, "last_updated": "2026-06-14T08:16:17.656748+00:00", "maneuver_count": 0, "owner": "N/A"}, "593": {"norad_id": "39249", "name": "GONETS M 05", "tle1": "1 39249U 13048A   26164.89503919  .00000050  00000-0  29178-3 0  9991", "tle2": "2 39249  82.4829 345.4358 0015956 217.8976 142.0982 12.42891867578475", "object_type": "PAYLOAD", "criticality_score": 9.0, "last_updated": "2026-06-14T08:16:17.656748+00:00", "maneuver_count": 0, "owner": "N/A"}, "594": {"norad_id": "39251", "name": "GONETS M 07", "tle1": "1 39251U 13048C   26164.93855243  .00000063  00000-0  38585-3 0  9995", "tle2": "2 39251  82.4897 348.3293 0016734 219.2566 140.7301 12.42914744578435", "object_type": "PAYLOAD", "criticality_score": 9.0, "last_updated": "2026-06-14T08:16:17.656748+00:00", "maneuver_count": 0, "owner": "N/A"}, "639": {"norad_id": "39150", "name": "GAOFEN 1", "tle1": "1 39150U 13018A   26164.94571455  .00000142  00000-0  27608-4 0  9994", "tle2": "2 39150  97.9101 237.0791 0015709 277.8518  82.0908 14.76531704707768", "object_type": "PAYLOAD", "criticality_score": 9.0, "last_updated": "2026-06-14T08:16:17.656748+00:00", "maneuver_count": 0, "owner": "N/A"}, "645": {"norad_id": "38338", "name": "KOMPSAT 3", "tle1": "1 38338U 12025B   26164.95333078  .00000391  00000-0  86826-4 0  9999", "tle2": "2 38338  98.1176 122.4690 0006566 117.5732 242.6137 14.62203644750876", "object_type": "PAYLOAD", "criticality_score": 9.0, "last_updated": "2026-06-14T08:16:17.656748+00:00", "maneuver_count": 0, "owner": "N/A"}, "658": {"norad_id": "38251", "name": "BEIDOU 13", "tle1": "1 38251U 12018B   26164.36225567 -.00000070  00000-0  00000-0 0  9994", "tle2": "2 38251  55.6617 304.2191 0011287 276.0779  83.7740  1.86229521 95872", "object_type": "PAYLOAD", "criticality_score": 9.0, "last_updated": "2026-06-14T08:16:17.656748+00:00", "maneuver_count": 0, "owner": "N/A"}}}